STARLINK-30266          
1 57529U 23115J   26067.25161082  .00125986  00000+0  45460-2 0  9997
2 57529  43.0018   9.5251 0001763 256.7731 103.2924 15.27319514142136
HAWK-11A                
1 62382U 24247F   26068.51231358  .00009457  00000+0  34106-3 0  9991
2 62382  44.9941 114.3328 0005466 327.3713  32.6832 15.28849427 67741
